SL-8 R/B                
1 15483U 85006B   26176.45600075  .00000170  00000+0  65094-4 0  9994
2 15483  74.0460  62.8483 0019054 308.6992 224.0284 14.37838194169513
SL-12 R/B(2)            
1 15772U 85042D   26176.55051329  .00000098  00000+0  65483-4 0  9999
2 15772  71.1066 219.8468 0036757 315.2048 194.6881 14.22007204129724
SL-14 R/B               
1 15945U 85069B   26176.58333376  .00000420  00000+0  44563-4 0  9993
2 15945  82.5274 283.4696 0018476 190.2626 169.8217 14.86521547188862
SL-16 R/B               
1 16182U 85097B   26176.60726307  .00000243  00000+0  14587-3 0  9996
2 16182  71.0034 273.3510 0005372  93.0831   5.9679 14.16612823102516
SL-14 R/B               
1 16496U 86006B   26176.46320683  .00000507  00000+0  51254-4 0  9992
2 16496  82.5266 158.3249 0074701 275.4906  83.7793 14.86952815165223
COSMOS 1743             
1 16719U 86034A   26176.44689093  .00059358  00000+0  54089-3 0  9998
2 16719  82.5275 319.9459 0004465 239.5461 120.5359 15.67668982197082
SL-14 R/B               
1 16792U 86046B   26176.50444137  .00000415  00000+0  44956-4 0  9990
2 16792  82.4820 338.3152 0021909 229.1740 130.7577 14.85676480142413
SL-14 R/B               
1 16882U 86055B   26176.56332962  .00000367  00000+0  39444-4 0  9990
2 16882  82.5199  25.2572 0018273 339.8170  79.0100 14.85728252135387
AJISAI (EGS)            
1 16908U 86061A   26176.59113240 -.00000109  00000+0 -81194-4 0  9990
2 16908  50.0086 121.5528 0011166 201.9320 332.5988 12.44516734481436
SL-14 R/B               
1 17567U 87024B   26176.56599527  .00000411  00000+0  44018-4 0  9993
2 17567  82.5281 351.3738 0016683 262.9193  97.0127 14.86218416104158
COSMOS 1833             
1 17589U 87027A   26176.53225471  .00000293  00000+0  18207-3 0  9999
2 17589  70.9199  99.3280 0023091  41.1517 319.1340 14.13056378 25558
SL-16 R/B               
1 17590U 87027B   26176.40388919  .00000206  00000+0  12603-3 0  9992
2 17590  71.0033  49.5141 0006687 303.4928  56.5556 14.17171960 30606
SL-14 R/B               
1 17912U 87038B   26176.54910982  .00000342  00000+0  36776-4 0  9997
2 17912  82.5004 195.1957 0019650 163.6397 196.5458 14.85449635 95241
COSMOS 1844             
1 17973U 87041A   26176.38065016  .00000143  00000+0  99066-4 0  9999
2 17973  70.8967 167.0240 0032459 223.5019 136.3541 14.14567998 18816
SL-14 R/B               
1 18153U 87055B   26176.57441313  .00000328  00000+0  34850-4 0  9999
2 18153  82.4988 247.3230 0021074  21.0669 339.1410 14.85716013 85952
COSMOS 1867             
1 18187U 87060A   26176.58639695 -.00000028  00000+0  27151-4 0  9999
2 18187  65.0114   4.5355 0016702 282.1123  77.8090 14.31516629 35389
SL-14 R/B               
1 18749U 88001B   26176.50966002  .00000370  00000+0  39843-4 0  9996
2 18749  82.5135  93.9446 0016635 239.5096 120.4478 14.85614856 58035
COSMOS 1933             
1 18958U 88020A   26176.40507470  .00003860  00000+0  18430-3 0  9993
2 18958  82.5123 144.2968 0004406 158.4445 201.6976 15.18761129 66579
SL-3 R/B                
1 19046U 88032B   26176.53317854  .00004093  00000+0  18698-3 0  9999
2 19046  97.5254 159.5653 0024436 214.1494 145.8171 15.20895467 68493
SL-16 R/B               
1 19120U 88039B   26176.50584961 -.00000076  00000+0 -13129-4 0  9995
2 19120  71.0129 200.5682 0021752 180.5948 179.5155 14.19630908973687
COSMOS 1953             
1 19210U 88050A   26176.39001202  .00008884  00000+0  30338-3 0  9990
2 19210  82.5079  49.7624 0012433 101.2495 259.0144 15.30080445 54243
SL-8 R/B                
1 19257U 88053B   26176.56486398  .00000149  00000+0  56779-4 0  9990
2 19257  74.0480 273.6146 0019210  65.8515  36.9208 14.38970345992115
COSMOS 1975             
1 19573U 88093A   26176.59460750  .00007978  00000+0  27793-3 0  9992
2 19573  82.5189   9.2440 0012059 143.7588 216.4472 15.29426678 35893
SL-14 R/B               
1 19574U 88093B   26176.61439235  .00000403  00000+0  43396-4 0  9994
2 19574  82.5317 300.7329 0021680  44.2414 326.3171 14.85747654 17040
SL-16 R/B               
1 19650U 88102B   26176.55201584  .00000257  00000+0  15363-3 0  9996
2 19650  71.0003 284.5382 0015333 213.4977 146.5178 14.16166183942165
INTERCOSMOS 24          
1 20261U 89080A   26176.59394916  .00000690  00000+0  19574-3 0  9997
2 20261  82.6057  34.1747 1188164  42.4186 326.2807 12.59673317680388
SL-14 R/B               
1 20262U 89080C   26176.48207178  .00000164  00000+0  49382-4 0  9996
2 20262  82.5941 103.9789 1228431 298.4155  49.8487 12.50573917673629
DELTA 1 R/B             
1 20323U 89089B   26176.49603332  .00000313  00000+0  85695-4 0  9999
2 20323  97.0635   6.7246 0069930 140.9810 219.6463 14.50736139911367
ARIANE 40 R/B           
1 20443U 90005H   26176.45277044  .00000222  00000+0  83877-4 0  9994
2 20443  98.2956 233.8119 0009045 236.1362 123.8966 14.39931302908313
DELTA 2 R/B(1)          
1 20453U 90008B   26176.01473069  .00092298  00000+0  64941-3 0  9999
2 20453  35.5990 183.2484 0064437 188.8546 171.1061 15.69968570942931
