OBJECT_NAME,OBJECT_ID,EPOCH,MEAN_MOTION,ECCENTRICITY,INCLINATION,RA_OF_ASC_NODE,ARG_OF_PERICENTER,MEAN_ANOMALY,EPHEMERIS_TYPE,CLASSIFICATION_TYPE,NORAD_CAT_ID,ELEMENT_SET_NO,REV_AT_EPOCH,BSTAR,MEAN_MOTION_DOT,MEAN_MOTION_DDOT
SL-8 R/B,1985-006B,2026-06-25T10:56:38.464800,14.37838194,.00190543,74.0460,62.8483,308.6992,224.0284,0,U,15483,999,16951,.65094095E-4,.17E-5,0
SL-12 R/B(2),1985-042D,2026-06-25T13:12:44.348256,14.22007204,.00367578,71.1066,219.8468,315.2048,194.6881,0,U,15772,999,12972,.65482697E-4,.98E-6,0
SL-14 R/B,1985-069B,2026-06-25T14:00:00.036864,14.86521547,.00184761,82.5274,283.4696,190.2626,169.8217,0,U,15945,999,18886,.44563206E-4,.42E-5,0
SL-16 R/B,1985-097B,2026-06-25T14:34:27.529248,14.16612823,.00053721,71.0034,273.3510,93.0831,5.9679,0,U,16182,999,10251,.14587289E-3,.243E-5,0
SL-14 R/B,1986-006B,2026-06-25T11:07:01.070112,14.86952815,.00747012,82.5266,158.3249,275.4906,83.7793,0,U,16496,999,16522,.51254403E-4,.507E-5,0
COSMOS 1743,1986-034A,2026-06-25T10:43:31.376352,15.67668982,.00044652,82.5275,319.9459,239.5461,120.5359,0,U,16719,999,19708,.54089267E-3,.59358E-3,0
SL-14 R/B,1986-046B,2026-06-25T12:06:23.734368,14.85676480,.00219091,82.4820,338.3152,229.1740,130.7577,0,U,16792,999,14241,.44955511E-4,.415E-5,0
SL-14 R/B,1986-055B,2026-06-25T13:31:11.679168,14.85728252,.00182735,82.5199,25.2572,339.8170,79.0100,0,U,16882,999,13538,.3944373E-4,.367E-5,0
AJISAI (EGS),1986-061A,2026-06-25T14:11:13.839360,12.44516734,.0011166,50.0086,121.5528,201.9320,332.5988,0,U,16908,999,48143,-.81194017E-4,-.109E-5,0
SL-14 R/B,1987-024B,2026-06-25T13:35:01.991328,14.86218416,.00166836,82.5281,351.3738,262.9193,97.0127,0,U,17567,999,10415,.44018295E-4,.411E-5,0
COSMOS 1833,1987-027A,2026-06-25T12:46:26.806944,14.13056378,.00230918,70.9199,99.3280,41.1517,319.1340,0,U,17589,999,2555,.18207465E-3,.293E-5,0
SL-16 R/B,1987-027B,2026-06-25T09:41:36.026016,14.17171960,.00066873,71.0033,49.5141,303.4928,56.5556,0,U,17590,999,3060,.12602615E-3,.206E-5,0
SL-14 R/B,1987-038B,2026-06-25T13:10:43.088448,14.85449635,.00196502,82.5004,195.1957,163.6397,196.5458,0,U,17912,999,9524,.36775777E-4,.342E-5,0
COSMOS 1844,1987-041A,2026-06-25T09:08:08.173824,14.14567998,.00324597,70.8967,167.0240,223.5019,136.3541,0,U,17973,999,1881,.99066153E-4,.143E-5,0
SL-14 R/B,1987-055B,2026-06-25T13:47:09.294432,14.85716013,.00210746,82.4988,247.3230,21.0669,339.1410,0,U,18153,999,8595,.34850146E-4,.328E-5,0
COSMOS 1867,1987-060A,2026-06-25T14:04:24.696480,14.31516629,.00167025,65.0114,4.5355,282.1123,77.8090,0,U,18187,999,3538,.27150548E-4,-.28E-6,0
SL-14 R/B,1988-001B,2026-06-25T12:13:54.625728,14.85614856,.00166358,82.5135,93.9446,239.5096,120.4478,0,U,18749,999,5803,.39842614E-4,.37E-5,0
COSMOS 1933,1988-020A,2026-06-25T09:43:18.454080,15.18761129,.00044064,82.5123,144.2968,158.4445,201.6976,0,U,18958,999,6657,.18429621E-3,.386E-4,0
SL-3 R/B,1988-032B,2026-06-25T12:47:46.625856,15.20895467,.00244361,97.5254,159.5653,214.1494,145.8171,0,U,19046,999,6849,.18697786E-3,.4093E-4,0
SL-16 R/B,1988-039B,2026-06-25T12:08:25.406304,14.19630908,.00217527,71.0129,200.5682,180.5948,179.5155,0,U,19120,999,97368,-.13129149E-4,-.76E-6,0
COSMOS 1953,1988-050A,2026-06-25T09:21:37.038528,15.30080445,.00124334,82.5079,49.7624,101.2495,259.0144,0,U,19210,999,5424,.30338104E-3,.8884E-4,0
SL-8 R/B,1988-053B,2026-06-25T13:33:24.247872,14.38970345,.00192108,74.0480,273.6146,65.8515,36.9208,0,U,19257,999,99211,.56778742E-4,.149E-5,0
COSMOS 1975,1988-093A,2026-06-25T14:16:14.088000,15.29426678,.00120592,82.5189,9.2440,143.7588,216.4472,0,U,19573,999,3589,.27792625E-3,.7978E-4,0
SL-14 R/B,1988-093B,2026-06-25T14:44:43.499040,14.85747654,.00216801,82.5317,300.7329,44.2414,326.3171,0,U,19574,999,1704,.43395589E-4,.403E-5,0
SL-16 R/B,1988-102B,2026-06-25T13:14:54.168576,14.16166183,.00153332,71.0003,284.5382,213.4977,146.5178,0,U,19650,999,94216,.15363286E-3,.257E-5,0
INTERCOSMOS 24,1989-080A,2026-06-25T14:15:17.207424,12.59673317,.11881649,82.6057,34.1747,42.4186,326.2807,0,U,20261,999,68038,.19573552E-3,.69E-5,0
SL-14 R/B,1989-080C,2026-06-25T11:34:11.001792,12.50573917,.12284319,82.5941,103.9789,298.4155,49.8487,0,U,20262,999,67362,.49381655E-4,.164E-5,0
DELTA 1 R/B,1989-089B,2026-06-25T11:54:17.278848,14.50736139,.00699309,97.0635,6.7246,140.9810,219.6463,0,U,20323,999,91136,.85695414E-4,.313E-5,0
ARIANE 40 R/B,1990-005H,2026-06-25T10:51:59.366016,14.39931302,.00090458,98.2956,233.8119,236.1362,123.8966,0,U,20443,999,90831,.83877105E-4,.222E-5,0
DELTA 2 R/B(1),1990-008B,2026-06-25T00:21:12.731616,15.69968570,.00644378,35.5990,183.2484,188.8546,171.1061,0,U,20453,999,94293,.64941232E-3,.92298E-3,0
